QIANFAN-1               
1 60379U 24140A   25301.58734837  .00000055  00000+0  67340-4 0  9995
2 60379  88.9730 303.9637 0017181 352.3150   7.7735 13.50977427 61258
QIANFAN-2               
1 60380U 24140B   25301.54215508  .00000054  00000+0  65342-4 0  9991
2 60380  88.9717 303.8140 0011567 325.8507  34.1899 13.50969597 61306
QIANFAN-3               
1 60381U 24140C   25301.55043906  .00000042  00000+0  47029-4 0  9993
2 60381  88.9709 303.9492 0013096 338.6135  21.4467 13.50969381 61218
QIANFAN-4               
1 60382U 24140D   25301.59971674  .00000050  00000+0  58486-4 0  9998
2 60382  88.9734 303.8303 0011882 328.4198  31.6239 13.50976263 61345
QIANFAN-5               
1 60383U 24140E   25301.57508850  .00000046  00000+0  52808-4 0  9996
2 60383  88.9709 303.9721 0014747 349.4620  10.6220 13.50972950 61200
QIANFAN-6               
1 60384U 24140F   25301.59568934  .00000067  00000+0  85310-4 0  9995
2 60384  88.9735 303.7040 0012177 334.6691  25.3862 13.50974072 61405
QIANFAN-7               
1 60385U 24140G   25301.60547976  .00000314  00000+0  12147-3 0  9993
2 60385  88.9746 299.0324 0014733 180.4745 179.6438 14.27585416 63956
QIANFAN-8               
1 60386U 24140H   25301.60388176  .00000053  00000+0  62875-4 0  9993
2 60386  88.9737 303.9400 0015691 335.1818  24.8577 13.50972110 61253
