<?xml version="1.0" encoding="UTF-8"?>
<ndm xmlns:xsi="http://www.w3.org/2001/XMLSchema-instance" xsi:noNamespaceSchemaLocation="https://sanaregistry.org/r/ndmxml_unqualified/ndmxml-2.0.0-master-2.0.xsd">
<omm id="CCSDS_OMM_VERS" version="2.0">
<header><CREATION_DATE/><ORIGINATOR/></header><body><segment><metadata><OBJECT_NAME>QIANFAN-1</OBJECT_NAME><OBJECT_ID>2024-140A</OBJECT_ID><CENTER_NAME>EARTH</CENTER_NAME><REF_FRAME>TEME</REF_FRAME><TIME_SYSTEM>UTC</TIME_SYSTEM><MEAN_ELEMENT_THEORY>SGP4</MEAN_ELEMENT_THEORY></metadata><data><meanElements><EPOCH>2025-10-28T14:05:46.899168</EPOCH><MEAN_MOTION>13.50977427</MEAN_MOTION><ECCENTRICITY>.00171813</ECCENTRICITY><INCLINATION>88.9730</INCLINATION><RA_OF_ASC_NODE>303.9637</RA_OF_ASC_NODE><ARG_OF_PERICENTER>352.3150</ARG_OF_PERICENTER><MEAN_ANOMALY>7.7735</MEAN_ANOMALY></meanElements><tleParameters><EPHEMERIS_TYPE>0</EPHEMERIS_TYPE><CLASSIFICATION_TYPE>U</CLASSIFICATION_TYPE><NORAD_CAT_ID>60379</NORAD_CAT_ID><ELEMENT_SET_NO>999</ELEMENT_SET_NO><REV_AT_EPOCH>6125</REV_AT_EPOCH><BSTAR>.67340132E-4</BSTAR><MEAN_MOTION_DOT>.55E-6</MEAN_MOTION_DOT><MEAN_MOTION_DDOT>0</MEAN_MOTION_DDOT></tleParameters></data></segment></body></omm>
<omm id="CCSDS_OMM_VERS" version="2.0">
<header><CREATION_DATE/><ORIGINATOR/></header><body><segment><metadata><OBJECT_NAME>QIANFAN-2</OBJECT_NAME><OBJECT_ID>2024-140B</OBJECT_ID><CENTER_NAME>EARTH</CENTER_NAME><REF_FRAME>TEME</REF_FRAME><TIME_SYSTEM>UTC</TIME_SYSTEM><MEAN_ELEMENT_THEORY>SGP4</MEAN_ELEMENT_THEORY></metadata><data><meanElements><EPOCH>2025-10-28T13:00:42.198912</EPOCH><MEAN_MOTION>13.50969597</MEAN_MOTION><ECCENTRICITY>.00115676</ECCENTRICITY><INCLINATION>88.9717</INCLINATION><RA_OF_ASC_NODE>303.8140</RA_OF_ASC_NODE><ARG_OF_PERICENTER>325.8507</ARG_OF_PERICENTER><MEAN_ANOMALY>34.1899</MEAN_ANOMALY></meanElements><tleParameters><EPHEMERIS_TYPE>0</EPHEMERIS_TYPE><CLASSIFICATION_TYPE>U</CLASSIFICATION_TYPE><NORAD_CAT_ID>60380</NORAD_CAT_ID><ELEMENT_SET_NO>999</ELEMENT_SET_NO><REV_AT_EPOCH>6130</REV_AT_EPOCH><BSTAR>.65342414E-4</BSTAR><MEAN_MOTION_DOT>.54E-6</MEAN_MOTION_DOT><MEAN_MOTION_DDOT>0</MEAN_MOTION_DDOT></tleParameters></data></segment></body></omm>
<omm id="CCSDS_OMM_VERS" version="2.0">
<header><CREATION_DATE/><ORIGINATOR/></header><body><segment><metadata><OBJECT_NAME>QIANFAN-3</OBJECT_NAME><OBJECT_ID>2024-140C</OBJECT_ID><CENTER_NAME>EARTH</CENTER_NAME><REF_FRAME>TEME</REF_FRAME><TIME_SYSTEM>UTC</TIME_SYSTEM><MEAN_ELEMENT_THEORY>SGP4</MEAN_ELEMENT_THEORY></metadata><data><meanElements><EPOCH>2025-10-28T13:12:37.934784</EPOCH><MEAN_MOTION>13.50969381</MEAN_MOTION><ECCENTRICITY>.00130965</ECCENTRICITY><INCLINATION>88.9709</INCLINATION><RA_OF_ASC_NODE>303.9492</RA_OF_ASC_NODE><ARG_OF_PERICENTER>338.6135</ARG_OF_PERICENTER><MEAN_ANOMALY>21.4467</MEAN_ANOMALY></meanElements><tleParameters><EPHEMERIS_TYPE>0</EPHEMERIS_TYPE><CLASSIFICATION_TYPE>U</CLASSIFICATION_TYPE><NORAD_CAT_ID>60381</NORAD_CAT_ID><ELEMENT_SET_NO>999</ELEMENT_SET_NO><REV_AT_EPOCH>6121</REV_AT_EPOCH><BSTAR>.47028738E-4</BSTAR><MEAN_MOTION_DOT>.42E-6</MEAN_MOTION_DOT><MEAN_MOTION_DDOT>0</MEAN_MOTION_DDOT></tleParameters></data></segment></body></omm>
<omm id="CCSDS_OMM_VERS" version="2.0">
<header><CREATION_DATE/><ORIGINATOR/></header><body><segment><metadata><OBJECT_NAME>QIANFAN-4</OBJECT_NAME><OBJECT_ID>2024-140D</OBJECT_ID><CENTER_NAME>EARTH</CENTER_NAME><REF_FRAME>TEME</REF_FRAME><TIME_SYSTEM>UTC</TIME_SYSTEM><MEAN_ELEMENT_THEORY>SGP4</MEAN_ELEMENT_THEORY></metadata><data><meanElements><EPOCH>2025-10-28T14:23:35.526336</EPOCH><MEAN_MOTION>13.50976263</MEAN_MOTION><ECCENTRICITY>.0011882</ECCENTRICITY><INCLINATION>88.9734</INCLINATION><RA_OF_ASC_NODE>303.8303</RA_OF_ASC_NODE><ARG_OF_PERICENTER>328.4198</ARG_OF_PERICENTER><MEAN_ANOMALY>31.6239</MEAN_ANOMALY></meanElements><tleParameters><EPHEMERIS_TYPE>0</EPHEMERIS_TYPE><CLASSIFICATION_TYPE>U</CLASSIFICATION_TYPE><NORAD_CAT_ID>60382</NORAD_CAT_ID><ELEMENT_SET_NO>999</ELEMENT_SET_NO><REV_AT_EPOCH>6134</REV_AT_EPOCH><BSTAR>.58486453E-4</BSTAR><MEAN_MOTION_DOT>.5E-6</MEAN_MOTION_DOT><MEAN_MOTION_DDOT>0</MEAN_MOTION_DDOT></tleParameters></data></segment></body></omm>
<omm id="CCSDS_OMM_VERS" version="2.0">
<header><CREATION_DATE/><ORIGINATOR/></header><body><segment><metadata><OBJECT_NAME>QIANFAN-5</OBJECT_NAME><OBJECT_ID>2024-140E</OBJECT_ID><CENTER_NAME>EARTH</CENTER_NAME><REF_FRAME>TEME</REF_FRAME><TIME_SYSTEM>UTC</TIME_SYSTEM><MEAN_ELEMENT_THEORY>SGP4</MEAN_ELEMENT_THEORY></metadata><data><meanElements><EPOCH>2025-10-28T13:48:07.646400</EPOCH><MEAN_MOTION>13.50972950</MEAN_MOTION><ECCENTRICITY>.00147474</ECCENTRICITY><INCLINATION>88.9709</INCLINATION><RA_OF_ASC_NODE>303.9721</RA_OF_ASC_NODE><ARG_OF_PERICENTER>349.4620</ARG_OF_PERICENTER><MEAN_ANOMALY>10.6220</MEAN_ANOMALY></meanElements><tleParameters><EPHEMERIS_TYPE>0</EPHEMERIS_TYPE><CLASSIFICATION_TYPE>U</CLASSIFICATION_TYPE><NORAD_CAT_ID>60383</NORAD_CAT_ID><ELEMENT_SET_NO>999</ELEMENT_SET_NO><REV_AT_EPOCH>6120</REV_AT_EPOCH><BSTAR>.5280777E-4</BSTAR><MEAN_MOTION_DOT>.46E-6</MEAN_MOTION_DOT><MEAN_MOTION_DDOT>0</MEAN_MOTION_DDOT></tleParameters></data></segment></body></omm>
<omm id="CCSDS_OMM_VERS" version="2.0">
<header><CREATION_DATE/><ORIGINATOR/></header><body><segment><metadata><OBJECT_NAME>QIANFAN-6</OBJECT_NAME><OBJECT_ID>2024-140F</OBJECT_ID><CENTER_NAME>EARTH</CENTER_NAME><REF_FRAME>TEME</REF_FRAME><TIME_SYSTEM>UTC</TIME_SYSTEM><MEAN_ELEMENT_THEORY>SGP4</MEAN_ELEMENT_THEORY></metadata><data><meanElements><EPOCH>2025-10-28T14:17:47.558976</EPOCH><MEAN_MOTION>13.50974072</MEAN_MOTION><ECCENTRICITY>.00121775</ECCENTRICITY><INCLINATION>88.9735</INCLINATION><RA_OF_ASC_NODE>303.7040</RA_OF_ASC_NODE><ARG_OF_PERICENTER>334.6691</ARG_OF_PERICENTER><MEAN_ANOMALY>25.3862</MEAN_ANOMALY></meanElements><tleParameters><EPHEMERIS_TYPE>0</EPHEMERIS_TYPE><CLASSIFICATION_TYPE>U</CLASSIFICATION_TYPE><NORAD_CAT_ID>60384</NORAD_CAT_ID><ELEMENT_SET_NO>999</ELEMENT_SET_NO><REV_AT_EPOCH>6140</REV_AT_EPOCH><BSTAR>.85310266E-4</BSTAR><MEAN_MOTION_DOT>.67E-6</MEAN_MOTION_DOT><MEAN_MOTION_DDOT>0</MEAN_MOTION_DDOT></tleParameters></data></segment></body></omm>
<omm id="CCSDS_OMM_VERS" version="2.0">
<header><CREATION_DATE/><ORIGINATOR/></header><body><segment><metadata><OBJECT_NAME>QIANFAN-7</OBJECT_NAME><OBJECT_ID>2024-140G</OBJECT_ID><CENTER_NAME>EARTH</CENTER_NAME><REF_FRAME>TEME</REF_FRAME><TIME_SYSTEM>UTC</TIME_SYSTEM><MEAN_ELEMENT_THEORY>SGP4</MEAN_ELEMENT_THEORY></metadata><data><meanElements><EPOCH>2025-10-28T14:31:53.451264</EPOCH><MEAN_MOTION>14.27585416</MEAN_MOTION><ECCENTRICITY>.00147333</ECCENTRICITY><INCLINATION>88.9746</INCLINATION><RA_OF_ASC_NODE>299.0324</RA_OF_ASC_NODE><ARG_OF_PERICENTER>180.4745</ARG_OF_PERICENTER><MEAN_ANOMALY>179.6438</MEAN_ANOMALY></meanElements><tleParameters><EPHEMERIS_TYPE>0</EPHEMERIS_TYPE><CLASSIFICATION_TYPE>U</CLASSIFICATION_TYPE><NORAD_CAT_ID>60385</NORAD_CAT_ID><ELEMENT_SET_NO>999</ELEMENT_SET_NO><REV_AT_EPOCH>6395</REV_AT_EPOCH><BSTAR>.12146788E-3</BSTAR><MEAN_MOTION_DOT>.314E-5</MEAN_MOTION_DOT><MEAN_MOTION_DDOT>0</MEAN_MOTION_DDOT></tleParameters></data></segment></body></omm>
<omm id="CCSDS_OMM_VERS" version="2.0">
<header><CREATION_DATE/><ORIGINATOR/></header><body><segment><metadata><OBJECT_NAME>QIANFAN-8</OBJECT_NAME><OBJECT_ID>2024-140H</OBJECT_ID><CENTER_NAME>EARTH</CENTER_NAME><REF_FRAME>TEME</REF_FRAME><TIME_SYSTEM>UTC</TIME_SYSTEM><MEAN_ELEMENT_THEORY>SGP4</MEAN_ELEMENT_THEORY></metadata><data><meanElements><EPOCH>2025-10-28T14:29:35.384064</EPOCH><MEAN_MOTION>13.50972110</MEAN_MOTION><ECCENTRICITY>.00156919</ECCENTRICITY><INCLINATION>88.9737</INCLINATION><RA_OF_ASC_NODE>303.9400</RA_OF_ASC_NODE><ARG_OF_PERICENTER>335.1818</ARG_OF_PERICENTER><MEAN_ANOMALY>24.8577</MEAN_ANOMALY></meanElements><tleParameters><EPHEMERIS_TYPE>0</EPHEMERIS_TYPE><CLASSIFICATION_TYPE>U</CLASSIFICATION_TYPE><NORAD_CAT_ID>60386</NORAD_CAT_ID><ELEMENT_SET_NO>999</ELEMENT_SET_NO><REV_AT_EPOCH>6125</REV_AT_EPOCH><BSTAR>.62874862E-4</BSTAR><MEAN_MOTION_DOT>.53E-6</MEAN_MOTION_DOT><MEAN_MOTION_DDOT>0</MEAN_MOTION_DDOT></tleParameters></data></segment></body></omm>

</ndm>
